STARLINK-1142
1 15093C 20006BB  21326.15868845  .00005702  00000-0  38201-3 0  3263
2 15093  53.0542  88.0296 0001368  81.7349 336.5806 15.06397577    17
